[{"OBJECT_NAME":"IRIDIUM 151","OBJECT_ID":"2017-083E","EPOCH":"2026-03-28T18:49:47.202240","MEAN_MOTION":14.34218092,"ECCENTRICITY":0.0002223,"INCLINATION":86.4025,"RA_OF_ASC_NODE":355.6663,"ARG_OF_PERICENTER":85.3356,"MEAN_ANOMALY":274.8094,"EPHEMERIS_TYPE":0,"CLASSIFICATION_TYPE":"U","NORAD_CAT_ID":43074,"ELEMENT_SET_NO":999,"REV_AT_EPOCH":43261,"BSTAR":3.0084e-5,"MEAN_MOTION_DOT":1.04e-6,"MEAN_MOTION_DDOT":0},{"OBJECT_NAME":"IRIDIUM 134","OBJECT_ID":"2017-083F","EPOCH":"2026-03-28T19:44:35.341728","MEAN_MOTION":14.34218001,"ECCENTRICITY":0.0002154,"INCLINATION":86.4027,"RA_OF_ASC_NODE":355.6573,"ARG_OF_PERICENTER":88.7469,"MEAN_ANOMALY":271.3974,"EPHEMERIS_TYPE":0,"CLASSIFICATION_TYPE":"U","NORAD_CAT_ID":43075,"ELEMENT_SET_NO":999,"REV_AT_EPOCH":43258,"BSTAR":9.8643e-5,"MEAN_MOTION_DOT":2.96e-6,"MEAN_MOTION_DDOT":0},{"OBJECT_NAME":"IRIDIUM 137","OBJECT_ID":"2017-083G","EPOCH":"2026-03-28T20:02:51.718848","MEAN_MOTION":14.34216172,"ECCENTRICITY":0.0002663,"INCLINATION":86.4026,"RA_OF_ASC_NODE":355.7431,"ARG_OF_PERICENTER":84.6221,"MEAN_ANOMALY":275.5278,"EPHEMERIS_TYPE":0,"CLASSIFICATION_TYPE":"U","NORAD_CAT_ID":43076,"ELEMENT_SET_NO":999,"REV_AT_EPOCH":43265,"BSTAR":0.00010464,"MEAN_MOTION_DOT":3.13e-6,"MEAN_MOTION_DDOT":0},{"OBJECT_NAME":"IRIDIUM 141","OBJECT_ID":"2017-083H","EPOCH":"2026-03-28T19:53:43.022688","MEAN_MOTION":14.34214786,"ECCENTRICITY":0.0002138,"INCLINATION":86.4023,"RA_OF_ASC_NODE":355.5809,"ARG_OF_PERICENTER":83.5792,"MEAN_ANOMALY":276.5647,"EPHEMERIS_TYPE":0,"CLASSIFICATION_TYPE":"U","NORAD_CAT_ID":43077,"ELEMENT_SET_NO":999,"REV_AT_EPOCH":43265,"BSTAR":0.00015156,"MEAN_MOTION_DOT":4.44e-6,"MEAN_MOTION_DDOT":0},{"OBJECT_NAME":"IRIDIUM 153","OBJECT_ID":"2017-083J","EPOCH":"2026-03-28T17:04:23.348640","MEAN_MOTION":14.34218525,"ECCENTRICITY":0.000186,"INCLINATION":86.3979,"RA_OF_ASC_NODE":324.1376,"ARG_OF_PERICENTER":84.6659,"MEAN_ANOMALY":275.4749,"EPHEMERIS_TYPE":0,"CLASSIFICATION_TYPE":"U","NORAD_CAT_ID":43078,"ELEMENT_SET_NO":999,"REV_AT_EPOCH":43374,"BSTAR":6.8392e-5,"MEAN_MOTION_DOT":2.11e-6,"MEAN_MOTION_DDOT":0},{"OBJECT_NAME":"IRIDIUM 131","OBJECT_ID":"2017-083K","EPOCH":"2026-03-28T19:35:27.095712","MEAN_MOTION":14.34219173,"ECCENTRICITY":0.0002181,"INCLINATION":86.4029,"RA_OF_ASC_NODE":355.7668,"ARG_OF_PERICENTER":82.2858,"MEAN_ANOMALY":277.8586,"EPHEMERIS_TYPE":0,"CLASSIFICATION_TYPE":"U","NORAD_CAT_ID":43079,"ELEMENT_SET_NO":999,"REV_AT_EPOCH":43258,"BSTAR":9.1598e-5,"MEAN_MOTION_DOT":2.76e-6,"MEAN_MOTION_DDOT":0},{"OBJECT_NAME":"IRIDIUM 144","OBJECT_ID":"2018-030A","EPOCH":"2026-03-28T17:13:31.320768","MEAN_MOTION":14.34217616,"ECCENTRICITY":0.0002225,"INCLINATION":86.3977,"RA_OF_ASC_NODE":324.0662,"ARG_OF_PERICENTER":88.9082,"MEAN_ANOMALY":271.2368,"EPHEMERIS_TYPE":0,"CLASSIFICATION_TYPE":"U","NORAD_CAT_ID":43249,"ELEMENT_SET_NO":999,"REV_AT_EPOCH":41860,"BSTAR":9.0478e-5,"MEAN_MOTION_DOT":2.73e-6,"MEAN_MOTION_DDOT":0},{"OBJECT_NAME":"IRIDIUM 149","OBJECT_ID":"2018-030B","EPOCH":"2026-03-28T17:22:39.208224","MEAN_MOTION":14.34220546,"ECCENTRICITY":0.0002078,"INCLINATION":86.3976,"RA_OF_ASC_NODE":324.0314,"ARG_OF_PERICENTER":84.8774,"MEAN_ANOMALY":275.2659,"EPHEMERIS_TYPE":0,"CLASSIFICATION_TYPE":"U","NORAD_CAT_ID":43250,"ELEMENT_SET_NO":999,"REV_AT_EPOCH":41862,"BSTAR":8.5102e-5,"MEAN_MOTION_DOT":2.58e-6,"MEAN_MOTION_DDOT":0},{"OBJECT_NAME":"IRIDIUM 157","OBJECT_ID":"2018-030C","EPOCH":"2026-03-28T21:10:59.400480","MEAN_MOTION":14.34218111,"ECCENTRICITY":0.0002135,"INCLINATION":86.3979,"RA_OF_ASC_NODE":324.0164,"ARG_OF_PERICENTER":86.9321,"MEAN_ANOMALY":273.2119,"EPHEMERIS_TYPE":0,"CLASSIFICATION_TYPE":"U","NORAD_CAT_ID":43251,"ELEMENT_SET_NO":999,"REV_AT_EPOCH":41862,"BSTAR":4.0455e-5,"MEAN_MOTION_DOT":1.33e-6,"MEAN_MOTION_DDOT":0},{"OBJECT_NAME":"IRIDIUM 140","OBJECT_ID":"2018-030D","EPOCH":"2026-03-28T21:38:23.403264","MEAN_MOTION":14.34218384,"ECCENTRICITY":0.0002105,"INCLINATION":86.398,"RA_OF_ASC_NODE":324.0214,"ARG_OF_PERICENTER":88.0518,"MEAN_ANOMALY":272.0919,"EPHEMERIS_TYPE":0,"CLASSIFICATION_TYPE":"U","NORAD_CAT_ID":43252,"ELEMENT_SET_NO":999,"REV_AT_EPOCH":41868,"BSTAR":5.5112e-5,"MEAN_MOTION_DOT":1.74e-6,"MEAN_MOTION_DDOT":0},{"OBJECT_NAME":"IRIDIUM 145","OBJECT_ID":"2018-030E","EPOCH":"2026-03-28T21:20:07.560960","MEAN_MOTION":14.34216887,"ECCENTRICITY":0.0002277,"INCLINATION":86.3976,"RA_OF_ASC_NODE":323.9989,"ARG_OF_PERICENTER":93.3062,"MEAN_ANOMALY":266.8395,"EPHEMERIS_TYPE":0,"CLASSIFICATION_TYPE":"U","NORAD_CAT_ID":43253,"ELEMENT_SET_NO":999,"REV_AT_EPOCH":41861,"BSTAR":-1.6477e-5,"MEAN_MOTION_DOT":-2.6e-7,"MEAN_MOTION_DDOT":0},{"OBJECT_NAME":"IRIDIUM 146","OBJECT_ID":"2018-030F","EPOCH":"2026-03-28T17:31:47.468928","MEAN_MOTION":14.34218275,"ECCENTRICITY":0.0002254,"INCLINATION":86.3979,"RA_OF_ASC_NODE":324.0779,"ARG_OF_PERICENTER":88.459,"MEAN_ANOMALY":271.6864,"EPHEMERIS_TYPE":0,"CLASSIFICATION_TYPE":"U","NORAD_CAT_ID":43254,"ELEMENT_SET_NO":999,"REV_AT_EPOCH":41860,"BSTAR":7.0335e-5,"MEAN_MOTION_DOT":2.17e-6,"MEAN_MOTION_DDOT":0},{"OBJECT_NAME":"IRIDIUM 148","OBJECT_ID":"2018-030G","EPOCH":"2026-03-28T16:46:07.407840","MEAN_MOTION":14.34218155,"ECCENTRICITY":0.0002188,"INCLINATION":86.3981,"RA_OF_ASC_NODE":324.1331,"ARG_OF_PERICENTER":86.2974,"MEAN_ANOMALY":273.8472,"EPHEMERIS_TYPE":0,"CLASSIFICATION_TYPE":"U","NORAD_CAT_ID":43255,"ELEMENT_SET_NO":999,"REV_AT_EPOCH":41863,"BSTAR":3.8557e-5,"MEAN_MOTION_DOT":1.28e-6,"MEAN_MOTION_DDOT":0},{"OBJECT_NAME":"IRIDIUM 142","OBJECT_ID":"2018-030H","EPOCH":"2026-03-28T17:40:55.518816","MEAN_MOTION":14.34218472,"ECCENTRICITY":0.000234,"INCLINATION":86.3976,"RA_OF_ASC_NODE":324.0091,"ARG_OF_PERICENTER":91.9987,"MEAN_ANOMALY":268.1477,"EPHEMERIS_TYPE":0,"CLASSIFICATION_TYPE":"U","NORAD_CAT_ID":43256,"ELEMENT_SET_NO":999,"REV_AT_EPOCH":41860,"BSTAR":8.164e-5,"MEAN_MOTION_DOT":2.48e-6,"MEAN_MOTION_DDOT":0},{"OBJECT_NAME":"IRIDIUM 150","OBJECT_ID":"2018-030J","EPOCH":"2026-03-28T16:55:15.398112","MEAN_MOTION":14.34218073,"ECCENTRICITY":0.0002108,"INCLINATION":86.398,"RA_OF_ASC_NODE":324.136,"ARG_OF_PERICENTER":88.241,"MEAN_ANOMALY":271.9027,"EPHEMERIS_TYPE":0,"CLASSIFICATION_TYPE":"U","NORAD_CAT_ID":43257,"ELEMENT_SET_NO":999,"REV_AT_EPOCH":41862,"BSTAR":5.8427e-5,"MEAN_MOTION_DOT":1.83e-6,"MEAN_MOTION_DDOT":0},{"OBJECT_NAME":"IRIDIUM 143","OBJECT_ID":"2018-030K","EPOCH":"2026-03-28T21:29:15.494208","MEAN_MOTION":14.34217324,"ECCENTRICITY":0.0002108,"INCLINATION":86.3982,"RA_OF_ASC_NODE":324.1457,"ARG_OF_PERICENTER":90.9132,"MEAN_ANOMALY":269.2305,"EPHEMERIS_TYPE":0,"CLASSIFICATION_TYPE":"U","NORAD_CAT_ID":43258,"ELEMENT_SET_NO":999,"REV_AT_EPOCH":41858,"BSTAR":1.2964e-5,"MEAN_MOTION_DOT":5.6e-7,"MEAN_MOTION_DDOT":0},{"OBJECT_NAME":"IRIDIUM 161","OBJECT_ID":"2018-047C","EPOCH":"2026-03-28T19:32:57.174432","MEAN_MOTION":14.43286085,"ECCENTRICITY":0.0002219,"INCLINATION":86.4464,"RA_OF_ASC_NODE":122.0885,"ARG_OF_PERICENTER":84.5443,"MEAN_ANOMALY":275.6011,"EPHEMERIS_TYPE":0,"CLASSIFICATION_TYPE":"U","NORAD_CAT_ID":43478,"ELEMENT_SET_NO":999,"REV_AT_EPOCH":41354,"BSTAR":9.1765e-5,"MEAN_MOTION_DOT":3.29e-6,"MEAN_MOTION_DDOT":0}]
